 2016 0523 1517 00.0 L  31.177 129.248 14.8  RSN  3 0.1 4.8LRSN 4.8WRSN        1
 GAP=135        0.80       2.6     3.6  4.8 -0.1622E+01  0.5295E+01 -0.1830E+00E
 ACTION:REG 15-11-17 19:58 OP:xxx  STATUS:               ID:20160523151742     I
 2016-05-19-1921-58M.COL___284                                                 6
 STAT SP IPHASW D HRMM SECON CODA AMPLIT PERI AZIMU VELO AIN AR TRES W  DIS CAZ7
 STA1 EZ EP       1214 15.24                             110   -0.0210 29.7 251
 STA1 EZ ES       1214 19.3                              110   -0.1010 29.7 251
 STA2 EZ EP       1214 15.24                             110   -0.0210 29.7 251
 STA2 EZ ES       1214 19.3                              110   -0.1010 29.7 251
 STA3 EZ EP       1214 15.24                             110   -0.0210 29.7 251
 STA3 EZ ES       1214 19.3                              110   -0.1010 29.7 251
